pdes,full_name,a,e,i,om,w,q,ad,per_y,condition_code,class,H,H_sigma,G,diameter,diameter_sigma,extent,albedo,rot_per,spec_B,spec_T,in_Tess,num_sectors,num_of_days,sector,num_cameras,camera,num_ccd,first_time,first_ccd,first_column,first_row,last_time,last_ccd,last_column,last_row,max_pix_per_hour,min_Vmag,mean_Vmag,max_Vmag,min_phase_angle,mean_phase_angle,max_phase_angle,min_sun_distance,mean_sun_distance,max_sun_distance,min_tess_distance,mean_tess_distance,max_tess_distance
81,    81 Terpsichore (A864 SA),2.853711594746076,0.2108473500459581,7.80314034698674,0.9479424692936758,51.63427775335209,2.252014067198441,3.455409122293711,4.82084670627146,0,MBA,8.6,,,117.727,0.734,,0.045,10.943,Cb,C,True,2,19,1,1,1,1,1334.5,3,44.760999992629095,329.174198523293,1352.5,3,734.2698465774185,235.99147821883628,1.7755138482503585,12.205,12.312631578947368,12.511,2.7059,4.010242105263158,6.5505,2.699831262466,2.7195653083321574,2.739304497648,1.69582131750477,1.7201370301384344,1.75821446325906
81,    81 Terpsichore (A864 SA),2.853711594746076,0.2108473500459581,7.80314034698674,0.9479424692936758,51.63427775335209,2.252014067198441,3.455409122293711,4.82084670627146,0,MBA,8.6,,,117.727,0.734,,0.045,10.943,Cb,C,True,2,27,20,1,1,1,1842.5,4,1893.1171407125642,1115.4121926362081,1868.5,4,882.5444993331606,1046.7992488981236,1.7372690392268924,11.842,11.927222222222222,12.103,4.8152,6.7205148148148135,10.6786,2.430409691848,2.454350048762852,2.478882586129,1.49010903926659,1.4973899420921024,1.51365137395717
83,    83 Beatrix (A865 HA),2.431964225188723,0.08129868898076806,4.963774679103388,27.72641328163354,168.5949563021062,2.234248722032751,2.629679728344696,3.79266055929026,0,MBA,8.8,,,110.503,0.829,,0.05,10.16,X,X,True,1,26,21,1,1,1,1871.5,3,1665.8139005459263,438.8095018568293,1896.5,3,570.6819860463006,382.8356621523248,1.9370654602026784,11.65,11.758615384615386,11.964,3.5639,5.507788461538461,9.5454,2.325399793204,2.3354914689055,2.345770932723,1.35723189688744,1.3649311781744218,1.38202158239081
85,    85 Io (A865 SA),2.652997727197547,0.194709334323011,11.95939852489645,203.1041676239805,122.9016251554906,2.136434305774451,3.169561148620643,4.32129106007207,0,MBA,7.7,,,154.79,3.8,,0.0666,6.875,B,FC,True,1,25,9,1,1,1,1543.5,4,564.0554512974943,836.5103910687858,1567.5,4,1522.1924949661445,655.4658045371488,1.7872947768226062,12.142,12.213720000000002,12.357,3.2668,4.453132,7.0543,3.1075797293,3.1168931614264,3.125697820396,2.13579385783684,2.1445406942344065,2.16169468887103
86,    86 Semele (A866 AA),3.107374383285734,0.2151374597539971,4.820528131678785,86.09722831414874,308.9030578440489,2.438861751960998,3.775887014610471,5.47770417059941,0,MBA,8.7,,,109.929,0.609,,0.056,16.634,,C,True,1,1,1,1,1,1,1352.5,4,231.98902945402648,2.090552698022176,1352.5,4,231.98902945402648,2.090552698022176,1.4386031528318948,12.696,12.696,12.696,5.4763,5.4763,5.4763,2.811994484533,2.811994484533,2.811994484533,1.82429424304201,1.82429424304201,1.82429424304201
87,    87 Sylvia (A866 KA),3.482070735734205,0.0934036151672882,10.87598597873656,73.0406379856919,263.5897277669318,3.156832740748411,3.807308730719998,6.4977737624249,0,OMB,6.8,,,253.051,2.953,,0.046,5.184,X,P,True,1,12,20,1,1,1,1857.5,4,2059.73313627321,736.9732549818723,1868.5,4,1671.6754505687984,785.2574604721489,1.3981553798147524,12.131,12.151416666666668,12.197,2.7093,3.016525,3.7184,3.714038713207,3.7171147251744165,3.720162828006,2.74373039966991,2.746325596536686,2.7519025319072
93,    93 Minerva (A867 QA),2.756376883700474,0.1390662322416344,8.556424221457043,4.030976073456722,274.9405839566488,2.373057935846311,3.139695831554637,4.57631700613377,0,MBA,7.9,,,154.155,1.298,,0.056,5.982,C,CU,True,1,3,19,1,1,1,1838.5,4,2064.386204679572,1183.927107028167,1840.5,4,1982.175114100585,1178.9810199757944,1.626906116009555,12.418,12.418666666666667,12.42,3.8839,3.9098,3.9468,3.133583065643,3.1338056372743335,3.134026830423,2.16466298918451,2.1652117358938434,2.16590579771097
94,    94 Aurora (A867 RA),3.157818067599943,0.09427348808102752,7.969381168112063,2.565352380464117,60.34317343018009,2.860119543642007,3.455516591557879,5.61162782686381,0,MBA,7.6,,,204.89,3.6,,0.0395,7.22,C,CP,True,2,25,1,1,1,2,1325.5,3,1702.95794317398,500.3374095684357,1352.5,4,419.5655220278715,387.0713811740698,1.4750665399145593,12.155,12.235439999999999,12.355,2.7289,3.9248320000000003,5.5228,3.208022795651,3.2198538872696405,3.231491262092,2.21276413107869,2.225056336203639,2.24926052805102
94,    94 Aurora (A867 RA),3.157818067599943,0.09427348808102752,7.969381168112063,2.565352380464117,60.34317343018009,2.860119543642007,3.455516591557879,5.61162782686381,0,MBA,7.6,,,204.89,3.6,,0.0395,7.22,C,CP,True,2,8,18,1,1,1,1791.5,3,324.10931051886104,323.3419751340125,1798.5,3,48.597359162645944,368.64593065217764,1.6359407381958826,11.56,11.588125000000002,11.638,2.664,3.085375,3.8193,2.874554597334,2.875660067435,2.876787648469,1.88900045237084,1.8912453089070425,1.89587240901707
